OBJECT B                
1 51825U 22019B   24180.91701164  .00018013  00000+0  78233-3 0  9997
2 51825  97.4281 252.1183 0014473 191.4698 168.6211 15.22269453129010
